SL-14 R/B               
1 16496U 86006B   26100.28541615  .00000946  00000+0  97526-4 0  9998
2 16496  82.5273 229.9970 0076825 166.8987 193.4251 14.86874299153907
COSMOS 1743             
1 16719U 86034A   26100.26732893  .00047778  00000+0  55539-3 0  9996
2 16719  82.5309  40.6215 0006491 140.4618 219.7114 15.61509294185174
SL-14 R/B               
1 16792U 86046B   26100.26181481  .00000529  00000+0  57985-4 0  9992
2 16792  82.4825  50.3461 0024421 121.6345 238.7258 14.85624674131096
SL-14 R/B               
1 16882U 86055B   26100.24674256  .00000466  00000+0  50899-4 0  9994
2 16882  82.5169  97.0025 0017738 224.3248 146.1666 14.85673477124056
AJISAI (EGS)            
1 16908U 86061A   26100.28269856 -.00000092  00000+0  38179-4 0  9993
2 16908  50.0121 356.2011 0011386   8.2955  90.5280 12.44515704471932
SL-14 R/B               
1 17567U 87024B   26099.87974625  .00000494  00000+0  53362-4 0  9990
2 17567  82.5273  63.4416 0018890 153.0307 207.1896 14.86165212 92767
COSMOS 1833             
1 17589U 87027A   26099.86627232 -.00000298  00000+0 -13349-3 0  9999
2 17589  70.9163 260.4856 0022740 167.4555 192.7137 14.13041329 14729
SL-16 R/B               
1 17590U 87027B   26100.31410022 -.00000072  00000+0 -12168-4 0  9990
2 17590  71.0037 209.8514 0002921  60.3271 299.8143 14.17170471 19823
SL-14 R/B               
1 17912U 87038B   26099.89070134  .00000475  00000+0  52131-4 0  9995
2 17912  82.4983 267.4049 0020582  63.6497 296.6829 14.85400946 83868
COSMOS 1844             
1 17973U 87041A   26100.00955865  .00000080  00000+0  66380-4 0  9998
2 17973  70.9011 328.1167 0031969 331.7460  28.1926 14.14564824  8013
SL-14 R/B               
1 18153U 87055B   26100.06411753  .00000361  00000+0  38745-4 0  9999
2 18153  82.4986 319.4622 0019103 270.0183  89.8844 14.85660632 74596
COSMOS 1867             
1 18187U 87060A   26100.29808135 -.00000038  00000+0  23183-4 0  9993
2 18187  65.0109 218.1825 0015063 280.3958  79.5429 14.31508266 24463
SL-14 R/B               
1 18749U 88001B   26100.19636835  .00000402  00000+0  43510-4 0  9998
2 18749  82.5149 165.7361 0019272 131.2162 229.0719 14.85562774 46702
COSMOS 1933             
1 18958U 88020A   26100.29609718  .00003972  00000+0  19217-3 0  9993
2 18958  82.5139 219.6343 0005492  91.8236 268.3628 15.18305010 55029
SL-3 R/B                
1 19046U 88032B   26100.19822895  .00004647  00000+0  21519-3 0  9995
2 19046  97.5229  83.3547 0027428 122.1107 238.2796 15.20275614 56891
SL-16 R/B               
1 19120U 88039B   26100.12475156  .00000140  00000+0  88655-4 0  9991
2 19120  71.0175   2.0794 0023950 289.6579  70.1962 14.19621421962848
COSMOS 1953             
1 19210U 88050A   26100.04345792  .00006636  00000+0  23385-3 0  9991
2 19210  82.5060 126.6979 0011294  23.7747 336.4012 15.29036448 42572
