[{"OBJECT_NAME":"SL-14 R/B","OBJECT_ID":"1986-006B","EPOCH":"2026-04-10T06:50:59.955360","MEAN_MOTION":14.86874299,"ECCENTRICITY":0.00768255,"INCLINATION":82.5273,"RA_OF_ASC_NODE":229.997,"ARG_OF_PERICENTER":166.8987,"MEAN_ANOMALY":193.4251,"EPHEMERIS_TYPE":0,"CLASSIFICATION_TYPE":"U","NORAD_CAT_ID":16496,"ELEMENT_SET_NO":999,"REV_AT_EPOCH":15390,"BSTAR":9.752626e-5,"MEAN_MOTION_DOT":9.46e-6,"MEAN_MOTION_DDOT":0},{"OBJECT_NAME":"COSMOS 1743","OBJECT_ID":"1986-034A","EPOCH":"2026-04-10T06:24:57.219552","MEAN_MOTION":15.61509294,"ECCENTRICITY":0.00064915,"INCLINATION":82.5309,"RA_OF_ASC_NODE":40.6215,"ARG_OF_PERICENTER":140.4618,"MEAN_ANOMALY":219.7114,"EPHEMERIS_TYPE":0,"CLASSIFICATION_TYPE":"U","NORAD_CAT_ID":16719,"ELEMENT_SET_NO":999,"REV_AT_EPOCH":18517,"BSTAR":0.00055539182,"MEAN_MOTION_DOT":0.00047778,"MEAN_MOTION_DDOT":0},{"OBJECT_NAME":"SL-14 R/B","OBJECT_ID":"1986-046B","EPOCH":"2026-04-10T06:17:00.799584","MEAN_MOTION":14.85624674,"ECCENTRICITY":0.00244217,"INCLINATION":82.4825,"RA_OF_ASC_NODE":50.3461,"ARG_OF_PERICENTER":121.6345,"MEAN_ANOMALY":238.7258,"EPHEMERIS_TYPE":0,"CLASSIFICATION_TYPE":"U","NORAD_CAT_ID":16792,"ELEMENT_SET_NO":999,"REV_AT_EPOCH":13109,"BSTAR":5.7985193e-5,"MEAN_MOTION_DOT":5.29e-6,"MEAN_MOTION_DDOT":0},{"OBJECT_NAME":"SL-14 R/B","OBJECT_ID":"1986-055B","EPOCH":"2026-04-10T05:55:18.557184","MEAN_MOTION":14.85673477,"ECCENTRICITY":0.00177389,"INCLINATION":82.5169,"RA_OF_ASC_NODE":97.0025,"ARG_OF_PERICENTER":224.3248,"MEAN_ANOMALY":146.1666,"EPHEMERIS_TYPE":0,"CLASSIFICATION_TYPE":"U","NORAD_CAT_ID":16882,"ELEMENT_SET_NO":999,"REV_AT_EPOCH":12405,"BSTAR":5.0898641e-5,"MEAN_MOTION_DOT":4.66e-6,"MEAN_MOTION_DDOT":0},{"OBJECT_NAME":"AJISAI (EGS)","OBJECT_ID":"1986-061A","EPOCH":"2026-04-10T06:47:05.155584","MEAN_MOTION":12.44515704,"ECCENTRICITY":0.00113867,"INCLINATION":50.0121,"RA_OF_ASC_NODE":356.2011,"ARG_OF_PERICENTER":8.2955,"MEAN_ANOMALY":90.528,"EPHEMERIS_TYPE":0,"CLASSIFICATION_TYPE":"U","NORAD_CAT_ID":16908,"ELEMENT_SET_NO":999,"REV_AT_EPOCH":47193,"BSTAR":3.8178812e-5,"MEAN_MOTION_DOT":-9.2e-7,"MEAN_MOTION_DDOT":0},{"OBJECT_NAME":"SL-14 R/B","OBJECT_ID":"1987-024B","EPOCH":"2026-04-09T21:06:50.076000","MEAN_MOTION":14.86165212,"ECCENTRICITY":0.001889,"INCLINATION":82.5273,"RA_OF_ASC_NODE":63.4416,"ARG_OF_PERICENTER":153.0307,"MEAN_ANOMALY":207.1896,"EPHEMERIS_TYPE":0,"CLASSIFICATION_TYPE":"U","NORAD_CAT_ID":17567,"ELEMENT_SET_NO":999,"REV_AT_EPOCH":9276,"BSTAR":5.3362e-5,"MEAN_MOTION_DOT":4.94e-6,"MEAN_MOTION_DDOT":0},{"OBJECT_NAME":"COSMOS 1833","OBJECT_ID":"1987-027A","EPOCH":"2026-04-09T20:47:25.928448","MEAN_MOTION":14.13041329,"ECCENTRICITY":0.002274,"INCLINATION":70.9163,"RA_OF_ASC_NODE":260.4856,"ARG_OF_PERICENTER":167.4555,"MEAN_ANOMALY":192.7137,"EPHEMERIS_TYPE":0,"CLASSIFICATION_TYPE":"U","NORAD_CAT_ID":17589,"ELEMENT_SET_NO":999,"REV_AT_EPOCH":1472,"BSTAR":-0.00013348511,"MEAN_MOTION_DOT":-2.98e-6,"MEAN_MOTION_DDOT":0},{"OBJECT_NAME":"SL-16 R/B","OBJECT_ID":"1987-027B","EPOCH":"2026-04-10T07:32:18.259008","MEAN_MOTION":14.17170471,"ECCENTRICITY":0.00029216,"INCLINATION":71.0037,"RA_OF_ASC_NODE":209.8514,"ARG_OF_PERICENTER":60.3271,"MEAN_ANOMALY":299.8143,"EPHEMERIS_TYPE":0,"CLASSIFICATION_TYPE":"U","NORAD_CAT_ID":17590,"ELEMENT_SET_NO":999,"REV_AT_EPOCH":1982,"BSTAR":-1.2167653e-5,"MEAN_MOTION_DOT":-7.2e-7,"MEAN_MOTION_DDOT":0},{"OBJECT_NAME":"SL-14 R/B","OBJECT_ID":"1987-038B","EPOCH":"2026-04-09T21:22:36.595776","MEAN_MOTION":14.85400946,"ECCENTRICITY":0.0020582,"INCLINATION":82.4983,"RA_OF_ASC_NODE":267.4049,"ARG_OF_PERICENTER":63.6497,"MEAN_ANOMALY":296.6829,"EPHEMERIS_TYPE":0,"CLASSIFICATION_TYPE":"U","NORAD_CAT_ID":17912,"ELEMENT_SET_NO":999,"REV_AT_EPOCH":8386,"BSTAR":5.2131e-5,"MEAN_MOTION_DOT":4.75e-6,"MEAN_MOTION_DDOT":0},{"OBJECT_NAME":"COSMOS 1844","OBJECT_ID":"1987-041A","EPOCH":"2026-04-10T00:13:45.867360","MEAN_MOTION":14.14564824,"ECCENTRICITY":0.00319699,"INCLINATION":70.9011,"RA_OF_ASC_NODE":328.1167,"ARG_OF_PERICENTER":331.746,"MEAN_ANOMALY":28.1926,"EPHEMERIS_TYPE":0,"CLASSIFICATION_TYPE":"U","NORAD_CAT_ID":17973,"ELEMENT_SET_NO":999,"REV_AT_EPOCH":801,"BSTAR":6.6379524e-5,"MEAN_MOTION_DOT":8.0e-7,"MEAN_MOTION_DDOT":0},{"OBJECT_NAME":"SL-14 R/B","OBJECT_ID":"1987-055B","EPOCH":"2026-04-10T01:32:19.754592","MEAN_MOTION":14.85660632,"ECCENTRICITY":0.00191034,"INCLINATION":82.4986,"RA_OF_ASC_NODE":319.4622,"ARG_OF_PERICENTER":270.0183,"MEAN_ANOMALY":89.8844,"EPHEMERIS_TYPE":0,"CLASSIFICATION_TYPE":"U","NORAD_CAT_ID":18153,"ELEMENT_SET_NO":999,"REV_AT_EPOCH":7459,"BSTAR":3.874527e-5,"MEAN_MOTION_DOT":3.61e-6,"MEAN_MOTION_DDOT":0},{"OBJECT_NAME":"COSMOS 1867","OBJECT_ID":"1987-060A","EPOCH":"2026-04-10T07:09:14.228640","MEAN_MOTION":14.31508266,"ECCENTRICITY":0.00150635,"INCLINATION":65.0109,"RA_OF_ASC_NODE":218.1825,"ARG_OF_PERICENTER":280.3958,"MEAN_ANOMALY":79.5429,"EPHEMERIS_TYPE":0,"CLASSIFICATION_TYPE":"U","NORAD_CAT_ID":18187,"ELEMENT_SET_NO":999,"REV_AT_EPOCH":2446,"BSTAR":2.3183402e-5,"MEAN_MOTION_DOT":-3.8e-7,"MEAN_MOTION_DDOT":0},{"OBJECT_NAME":"SL-14 R/B","OBJECT_ID":"1988-001B","EPOCH":"2026-04-10T04:42:46.225440","MEAN_MOTION":14.85562774,"ECCENTRICITY":0.00192722,"INCLINATION":82.5149,"RA_OF_ASC_NODE":165.7361,"ARG_OF_PERICENTER":131.2162,"MEAN_ANOMALY":229.0719,"EPHEMERIS_TYPE":0,"CLASSIFICATION_TYPE":"U","NORAD_CAT_ID":18749,"ELEMENT_SET_NO":999,"REV_AT_EPOCH":4670,"BSTAR":4.3509603e-5,"MEAN_MOTION_DOT":4.02e-6,"MEAN_MOTION_DDOT":0},{"OBJECT_NAME":"COSMOS 1933","OBJECT_ID":"1988-020A","EPOCH":"2026-04-10T07:06:22.796352","MEAN_MOTION":15.1830501,"ECCENTRICITY":0.00054921,"INCLINATION":82.5139,"RA_OF_ASC_NODE":219.6343,"ARG_OF_PERICENTER":91.8236,"MEAN_ANOMALY":268.3628,"EPHEMERIS_TYPE":0,"CLASSIFICATION_TYPE":"U","NORAD_CAT_ID":18958,"ELEMENT_SET_NO":999,"REV_AT_EPOCH":5502,"BSTAR":0.00019217456,"MEAN_MOTION_DOT":3.972e-5,"MEAN_MOTION_DDOT":0},{"OBJECT_NAME":"SL-3 R/B","OBJECT_ID":"1988-032B","EPOCH":"2026-04-10T04:45:26.981280","MEAN_MOTION":15.20275614,"ECCENTRICITY":0.00274289,"INCLINATION":97.5229,"RA_OF_ASC_NODE":83.3547,"ARG_OF_PERICENTER":122.1107,"MEAN_ANOMALY":238.2796,"EPHEMERIS_TYPE":0,"CLASSIFICATION_TYPE":"U","NORAD_CAT_ID":19046,"ELEMENT_SET_NO":999,"REV_AT_EPOCH":5689,"BSTAR":0.00021519029,"MEAN_MOTION_DOT":4.647e-5,"MEAN_MOTION_DDOT":0},{"OBJECT_NAME":"SL-16 R/B","OBJECT_ID":"1988-039B","EPOCH":"2026-04-10T02:59:38.534784","MEAN_MOTION":14.19621421,"ECCENTRICITY":0.00239504,"INCLINATION":71.0175,"RA_OF_ASC_NODE":2.0794,"ARG_OF_PERICENTER":289.6579,"MEAN_ANOMALY":70.1962,"EPHEMERIS_TYPE":0,"CLASSIFICATION_TYPE":"U","NORAD_CAT_ID":19120,"ELEMENT_SET_NO":999,"REV_AT_EPOCH":96284,"BSTAR":8.8654752e-5,"MEAN_MOTION_DOT":1.4e-6,"MEAN_MOTION_DDOT":0},{"OBJECT_NAME":"COSMOS 1953","OBJECT_ID":"1988-050A","EPOCH":"2026-04-10T01:02:34.764288","MEAN_MOTION":15.29036448,"ECCENTRICITY":0.00112949,"INCLINATION":82.506,"RA_OF_ASC_NODE":126.6979,"ARG_OF_PERICENTER":23.7747,"MEAN_ANOMALY":336.4012,"EPHEMERIS_TYPE":0,"CLASSIFICATION_TYPE":"U","NORAD_CAT_ID":19210,"ELEMENT_SET_NO":999,"REV_AT_EPOCH":4257,"BSTAR":0.00023384634,"MEAN_MOTION_DOT":6.636e-5,"MEAN_MOTION_DDOT":0}]
